CCSDS_OMM_VERS = 2.0
CREATION_DATE  = 
ORIGINATOR     = 

OBJECT_NAME    = COSMOS 2242
OBJECT_ID      = 1993-024A
CENTER_NAME    = EARTH
REF_FRAME      = TEME
TIME_SYSTEM    = UTC
MEAN_ELEMENT_THEORY = SGP/SGP4

EPOCH          = 2026-03-07T00:40:44.094432
MEAN_MOTION    = 14.96534137
ECCENTRICITY   = .001534
INCLINATION    = 82.5153
RA_OF_ASC_NODE = 269.2627
ARG_OF_PERICENTER = 318.4750
MEAN_ANOMALY   = 41.5306

EPHEMERIS_TYPE = 0
CLASSIFICATION_TYPE = U
NORAD_CAT_ID   = 22626
ELEMENT_SET_NO = 999
REV_AT_EPOCH   = 77999
BSTAR          = .20248E-3
MEAN_MOTION_DOT = .2332E-4
MEAN_MOTION_DDOT = 0

CCSDS_OMM_VERS = 2.0
CREATION_DATE  = 
ORIGINATOR     = 

OBJECT_NAME    = SL-16 R/B
OBJECT_ID      = 1993-059B
CENTER_NAME    = EARTH
REF_FRAME      = TEME
TIME_SYSTEM    = UTC
MEAN_ELEMENT_THEORY = SGP/SGP4

EPOCH          = 2026-03-07T03:32:43.198944
MEAN_MOTION    = 14.17231991
ECCENTRICITY   = .0018662
INCLINATION    = 70.9925
RA_OF_ASC_NODE = 16.4859
ARG_OF_PERICENTER = 220.1979
MEAN_ANOMALY   = 139.7765

EPHEMERIS_TYPE = 0
CLASSIFICATION_TYPE = U
NORAD_CAT_ID   = 22803
ELEMENT_SET_NO = 999
REV_AT_EPOCH   = 67917
BSTAR          = -.49433E-4
MEAN_MOTION_DOT = -.148E-5
MEAN_MOTION_DDOT = 0

CCSDS_OMM_VERS = 2.0
CREATION_DATE  = 
ORIGINATOR     = 

OBJECT_NAME    = ARIANE 40 R/B
OBJECT_ID      = 1993-061H
CENTER_NAME    = EARTH
REF_FRAME      = TEME
TIME_SYSTEM    = UTC
MEAN_ELEMENT_THEORY = SGP/SGP4

EPOCH          = 2026-03-07T04:25:55.953696
MEAN_MOTION    = 14.32859251
ECCENTRICITY   = .0009597
INCLINATION    = 98.4920
RA_OF_ASC_NODE = 135.1216
ARG_OF_PERICENTER = 293.3433
MEAN_ANOMALY   = 66.6741

EPHEMERIS_TYPE = 0
CLASSIFICATION_TYPE = U
NORAD_CAT_ID   = 22830
ELEMENT_SET_NO = 999
REV_AT_EPOCH   = 69374
BSTAR          = .9989E-4
MEAN_MOTION_DOT = .229E-5
MEAN_MOTION_DDOT = 0

CCSDS_OMM_VERS = 2.0
CREATION_DATE  = 
ORIGINATOR     = 

OBJECT_NAME    = COSMOS 2278
OBJECT_ID      = 1994-023A
CENTER_NAME    = EARTH
REF_FRAME      = TEME
TIME_SYSTEM    = UTC
MEAN_ELEMENT_THEORY = SGP/SGP4

EPOCH          = 2026-03-06T13:21:29.998080
MEAN_MOTION    = 14.14377500
ECCENTRICITY   = .00078096
INCLINATION    = 71.0547
RA_OF_ASC_NODE = 181.6513
ARG_OF_PERICENTER = 19.4739
MEAN_ANOMALY   = 340.6680

EPHEMERIS_TYPE = 0
CLASSIFICATION_TYPE = U
NORAD_CAT_ID   = 23087
ELEMENT_SET_NO = 999
REV_AT_EPOCH   = 64436
BSTAR          = .1482273E-3
MEAN_MOTION_DOT = .237E-5
MEAN_MOTION_DDOT = 0

CCSDS_OMM_VERS = 2.0
CREATION_DATE  = 
ORIGINATOR     = 

OBJECT_NAME    = SL-16 R/B
OBJECT_ID      = 1994-023B
CENTER_NAME    = EARTH
REF_FRAME      = TEME
TIME_SYSTEM    = UTC
MEAN_ELEMENT_THEORY = SGP/SGP4

EPOCH          = 2026-03-07T04:04:48.012960
MEAN_MOTION    = 14.15012696
ECCENTRICITY   = .0005702
INCLINATION    = 70.9986
RA_OF_ASC_NODE = 76.1792
ARG_OF_PERICENTER = 288.0607
MEAN_ANOMALY   = 71.9894

EPHEMERIS_TYPE = 0
CLASSIFICATION_TYPE = U
NORAD_CAT_ID   = 23088
ELEMENT_SET_NO = 999
REV_AT_EPOCH   = 64573
BSTAR          = -.86892E-4
MEAN_MOTION_DOT = -.216E-5
MEAN_MOTION_DDOT = 0

CCSDS_OMM_VERS = 2.0
CREATION_DATE  = 
ORIGINATOR     = 

OBJECT_NAME    = SL-16 R/B
OBJECT_ID      = 1994-074B
CENTER_NAME    = EARTH
REF_FRAME      = TEME
TIME_SYSTEM    = UTC
MEAN_ELEMENT_THEORY = SGP/SGP4

EPOCH          = 2026-03-07T02:06:16.750368
MEAN_MOTION    = 14.79404053
ECCENTRICITY   = .0005599
INCLINATION    = 97.7112
RA_OF_ASC_NODE = 97.0107
ARG_OF_PERICENTER = 220.4071
MEAN_ANOMALY   = 199.2598

EPHEMERIS_TYPE = 0
CLASSIFICATION_TYPE = U
NORAD_CAT_ID   = 23343
ELEMENT_SET_NO = 999
REV_AT_EPOCH   = 68686
BSTAR          = .83366E-4
MEAN_MOTION_DOT = .572E-5
MEAN_MOTION_DDOT = 0

CCSDS_OMM_VERS = 2.0
CREATION_DATE  = 
ORIGINATOR     = 

OBJECT_NAME    = SL-16 R/B
OBJECT_ID      = 1994-077B
CENTER_NAME    = EARTH
REF_FRAME      = TEME
TIME_SYSTEM    = UTC
MEAN_ELEMENT_THEORY = SGP/SGP4

EPOCH          = 2026-03-07T03:39:45.124704
MEAN_MOTION    = 14.15561243
ECCENTRICITY   = .0003251
INCLINATION    = 70.9853
RA_OF_ASC_NODE = 357.8260
ARG_OF_PERICENTER = 215.6736
MEAN_ANOMALY   = 144.4170

EPHEMERIS_TYPE = 0
CLASSIFICATION_TYPE = U
NORAD_CAT_ID   = 23405
ELEMENT_SET_NO = 999
REV_AT_EPOCH   = 61587
BSTAR          = -.60994E-4
MEAN_MOTION_DOT = -.167E-5
MEAN_MOTION_DDOT = 0

CCSDS_OMM_VERS = 2.0
CREATION_DATE  = 
ORIGINATOR     = 

OBJECT_NAME    = ARIANE 40+ R/B
OBJECT_ID      = 1995-021B
CENTER_NAME    = EARTH
REF_FRAME      = TEME
TIME_SYSTEM    = UTC
MEAN_ELEMENT_THEORY = SGP/SGP4

EPOCH          = 2026-03-07T04:11:27.410784
MEAN_MOTION    = 14.39770076
ECCENTRICITY   = .0007541
INCLINATION    = 98.4502
RA_OF_ASC_NODE = 137.6913
ARG_OF_PERICENTER = 143.1923
MEAN_ANOMALY   = 270.9056

EPHEMERIS_TYPE = 0
CLASSIFICATION_TYPE = U
NORAD_CAT_ID   = 23561
ELEMENT_SET_NO = 999
REV_AT_EPOCH   = 61888
BSTAR          = .1238E-3
MEAN_MOTION_DOT = .345E-5
MEAN_MOTION_DDOT = 0

CCSDS_OMM_VERS = 2.0
CREATION_DATE  = 
ORIGINATOR     = 

OBJECT_NAME    = SL-16 R/B
OBJECT_ID      = 1995-058B
CENTER_NAME    = EARTH
REF_FRAME      = TEME
TIME_SYSTEM    = UTC
MEAN_ELEMENT_THEORY = SGP/SGP4

EPOCH          = 2026-03-06T09:10:16.457088
MEAN_MOTION    = 14.15493388
ECCENTRICITY   = .00109424
INCLINATION    = 71.0214
RA_OF_ASC_NODE = 187.1984
ARG_OF_PERICENTER = 131.6757
MEAN_ANOMALY   = 228.5304

EPHEMERIS_TYPE = 0
CLASSIFICATION_TYPE = U
NORAD_CAT_ID   = 23705
ELEMENT_SET_NO = 999
REV_AT_EPOCH   = 56738
BSTAR          = .10511608E-3
MEAN_MOTION_DOT = .158E-5
MEAN_MOTION_DDOT = 0

CCSDS_OMM_VERS = 2.0
CREATION_DATE  = 
ORIGINATOR     = 

OBJECT_NAME    = SL-16 R/B
OBJECT_ID      = 1996-051B
CENTER_NAME    = EARTH
REF_FRAME      = TEME
TIME_SYSTEM    = UTC
MEAN_ELEMENT_THEORY = SGP/SGP4

EPOCH          = 2026-03-06T13:17:55.802112
MEAN_MOTION    = 14.12414681
ECCENTRICITY   = .00153516
INCLINATION    = 70.7599
RA_OF_ASC_NODE = 181.8749
ARG_OF_PERICENTER = 152.7851
MEAN_ANOMALY   = 207.4077

EPHEMERIS_TYPE = 0
CLASSIFICATION_TYPE = U
NORAD_CAT_ID   = 24298
ELEMENT_SET_NO = 999
REV_AT_EPOCH   = 52120
BSTAR          = .88749892E-4
MEAN_MOTION_DOT = .115E-5
MEAN_MOTION_DDOT = 0

CCSDS_OMM_VERS = 2.0
CREATION_DATE  = 
ORIGINATOR     = 

OBJECT_NAME    = ORBVIEW 2 (SEASTAR)
OBJECT_ID      = 1997-037A
CENTER_NAME    = EARTH
REF_FRAME      = TEME
TIME_SYSTEM    = UTC
MEAN_ELEMENT_THEORY = SGP/SGP4

EPOCH          = 2026-03-07T01:09:08.960832
MEAN_MOTION    = 14.35492463
ECCENTRICITY   = .0003146
INCLINATION    = 98.8562
RA_OF_ASC_NODE = 230.2898
ARG_OF_PERICENTER = 77.4290
MEAN_ANOMALY   = 282.7246

EPHEMERIS_TYPE = 0
CLASSIFICATION_TYPE = U
NORAD_CAT_ID   = 24883
ELEMENT_SET_NO = 999
REV_AT_EPOCH   = 50809
BSTAR          = .15146E-3
MEAN_MOTION_DOT = .389E-5
MEAN_MOTION_DDOT = 0

CCSDS_OMM_VERS = 2.0
CREATION_DATE  = 
ORIGINATOR     = 

OBJECT_NAME    = SL-16 R/B
OBJECT_ID      = 1998-043G
CENTER_NAME    = EARTH
REF_FRAME      = TEME
TIME_SYSTEM    = UTC
MEAN_ELEMENT_THEORY = SGP/SGP4

EPOCH          = 2026-03-06T20:31:03.512928
MEAN_MOTION    = 14.26048938
ECCENTRICITY   = .0010352
INCLINATION    = 98.8251
RA_OF_ASC_NODE = 19.1984
ARG_OF_PERICENTER = 28.2706
MEAN_ANOMALY   = 331.9034

EPHEMERIS_TYPE = 0
CLASSIFICATION_TYPE = U
NORAD_CAT_ID   = 25400
ELEMENT_SET_NO = 999
REV_AT_EPOCH   = 43858
BSTAR          = .60097E-4
MEAN_MOTION_DOT = .98E-6
MEAN_MOTION_DDOT = 0

